{"type": "FeatureCollection", "features": [ {"type": "Feature", "properties": {"norad_id": 41469, "name": "IRNSS-1G", "group": "gnss", "lat": -3.2515729857043936, "lon": 58.45375573503083, "alt_km": 35774.117332928276, "timestamp": "2025-12-11T13:55:02.407460+00:00", "meta": {"OBJECT_NAME": "IRNSS-1G", "OBJECT_ID": "2016-027A", "EPOCH": "2025-12-10T07:18:31.930272", "MEAN_MOTION": 1.00250551, "ECCENTRICITY": 0.00046359, "INCLINATION": 4.7271, "RA_OF_ASC_NODE": 102.1628, "ARG_OF_PERICENTER": 335.3904, "MEAN_ANOMALY": 240.5348, "EPHEMERIS_TYPE": 0, "CLASSIFICATION_TYPE": "U", "NORAD_CAT_ID": 41469, "ELEMENT_SET_NO": 999, "REV_AT_EPOCH": 3528, "BSTAR": 0, "MEAN_MOTION_DOT": -3.34e-06, "MEAN_MOTION_DDOT": 0}, "tle": {"line1": "1 41469U 16027A   25344.30453623 -.00000334  00000+0  00000+0 0  9993", "line2": "2 41469   4.7271 102.1628 0004635 335.3904 240.5348  1.00250551 35285"}}, "geometry": {"type": "Point", "coordinates": [58.45375573503083, -3.2515729857043936]}}, {"type": "Feature", "properties": {"norad_id": 41549, "name": "GSAT0211 (GALILEO 14)", "group": "gnss", "lat": -44.78694176235447, "lon": -176.83867328298777, "alt_km": 23224.124359219586, "timestamp": "2025-12-11T13:55:02.407473+00:00", "meta": {"OBJECT_NAME": "GSAT0211 (GALILEO 14)", "OBJECT_ID": "2016-030A", "EPOCH": "2025-12-07T13:40:58.264320", "MEAN_MOTION": 1.70472997, "ECCENTRICITY": 0.00040128, "INCLINATION": 55.154, "RA_OF_ASC_NODE": 226.9659, "ARG_OF_PERICENTER": 14.4678, "MEAN_ANOMALY": 345.6377, "EPHEMERIS_TYPE": 0, "CLASSIFICATION_TYPE": "U", "NORAD_CAT_ID": 41549, "ELEMENT_SET_NO": 999, "REV_AT_EPOCH": 5940, "BSTAR": 0, "MEAN_MOTION_DOT": 2.3e-07, "MEAN_MOTION_DDOT": 0}, "tle": {"line1": "1 41549U 16030A   25341.57011880  .00000023  00000+0  00000+0 0  9991", "line2": "2 41549  55.1540 226.9659 0004012  14.4678 345.6377  1.70472997 59400"}}, "geometry": {"type": "Point", "coordinates": [-176.83867328298777, -44.78694176235447]}}, {"type": "Feature", "properties": {"norad_id": 41550, "name": "GSAT0210 (GALILEO 13)", "group": "gnss", "lat": 29.645462904122745, "lon": 23.522861905171368, "alt_km": 23219.282600167833, "timestamp": "2025-12-11T13:55:02.407485+00:00", "meta": {"OBJECT_NAME": "GSAT0210 (GALILEO 13)", "OBJECT_ID": "2016-030B", "EPOCH": "2025-12-10T18:15:00.862560", "MEAN_MOTION": 1.7047362, "ECCENTRICITY": 0.00012729, "INCLINATION": 55.1522, "RA_OF_ASC_NODE": 226.8761, "ARG_OF_PERICENTER": 243.214, "MEAN_ANOMALY": 116.853, "EPHEMERIS_TYPE": 0, "CLASSIFICATION_TYPE": "U", "NORAD_CAT_ID": 41550, "ELEMENT_SET_NO": 999, "REV_AT_EPOCH": 5945, "BSTAR": 0, "MEAN_MOTION_DOT": 9e-08, "MEAN_MOTION_DDOT": 0}, "tle": {"line1": "1 41550U 16030B   25344.76042665  .00000009  00000+0  00000+0 0  9996", "line2": "2 41550  55.1522 226.8761 0001272 243.2140 116.8530  1.70473620 59454"}}, "geometry": {"type": "Point", "coordinates": [23.522861905171368, 29.645462904122745]}}, {"type": "Feature", "properties": {"norad_id": 41586, "name": "BEIDOU-2 G7 (C03)", "group": "gnss", "lat": -0.8084172699467586, "lon": 39.72164727497239, "alt_km": 35771.03134415503, "timestamp": "2025-12-11T13:55:02.407498+00:00", "meta": {"OBJECT_NAME": "BEIDOU-2 G7 (C03)", "OBJECT_ID": "2016-037A", "EPOCH": "2025-12-11T02:03:05.631840", "MEAN_MOTION": 1.00267887, "ECCENTRICITY": 0.00043864, "INCLINATION": 1.7534, "RA_OF_ASC_NODE": 67.7301, "ARG_OF_PERICENTER": 0.3231, "MEAN_ANOMALY": 153.2176, "EPHEMERIS_TYPE": 0, "CLASSIFICATION_TYPE": "U", "NORAD_CAT_ID": 41586, "ELEMENT_SET_NO": 999, "REV_AT_EPOCH": 500, "BSTAR": 0, "MEAN_MOTION_DOT": -3.47e-06, "MEAN_MOTION_DDOT": 0}, "tle": {"line1": "1 41586U 16037A   25345.08548185 -.00000347  00000+0  00000+0 0  9992", "line2": "2 41586   1.7534  67.7301 0004386   0.3231 153.2176  1.00267887  5009"}}, "geometry": {"type": "Point", "coordinates": [39.72164727497239, -0.8084172699467586]}}, {"type": "Feature", "properties": {"norad_id": 41589, "name": "EUTELSAT 117 WEST B (WAAS/PRN 131)", "group": "gnss", "lat": 0.003496992759305899, "lon": 172.30600125791088, "alt_km": 35785.9915075265, "timestamp": "2025-12-11T13:55:02.407510+00:00", "meta": {"OBJECT_NAME": "EUTELSAT 117 WEST B (WAAS/PRN 131)", "OBJECT_ID": "2016-038B", "EPOCH": "2025-12-10T23:15:27.743040", "MEAN_MOTION": 1.00269754, "ECCENTRICITY": 3.232e-05, "INCLINATION": 0.0411, "RA_OF_ASC_NODE": 158.7318, "ARG_OF_PERICENTER": 311.552, "MEAN_ANOMALY": 201.5309, "EPHEMERIS_TYPE": 0, "CLASSIFICATION_TYPE": "U", "NORAD_CAT_ID": 41589, "ELEMENT_SET_NO": 999, "REV_AT_EPOCH": 3477, "BSTAR": 0, "MEAN_MOTION_DOT": -6e-08, "MEAN_MOTION_DDOT": 0}, "tle": {"line1": "1 41589U 16038B   25344.96907110 -.00000006  00000+0  00000+0 0  9991", "line2": "2 41589   0.0411 158.7318 0000323 311.5520 201.5309  1.00269754 34778"}}, "geometry": {"type": "Point", "coordinates": [172.30600125791088, 0.003496992759305899]}}, {"type": "Feature", "properties": {"norad_id": 41859, "name": "GSAT0207 (GALILEO 15)", "group": "gnss", "lat": -22.63468459739904, "lon": 89.54722245577194, "alt_km": 23218.746924533403, "timestamp": "2025-12-11T13:55:02.407522+00:00", "meta": {"OBJECT_NAME": "GSAT0207 (GALILEO 15)", "OBJECT_ID": "2016-069A", "EPOCH": "2025-12-09T20:46:23.344608", "MEAN_MOTION": 1.70474355, "ECCENTRICITY": 0.00021941, "INCLINATION": 55.3802, "RA_OF_ASC_NODE": 106.3298, "ARG_OF_PERICENTER": 323.9491, "MEAN_ANOMALY": 36.0038, "EPHEMERIS_TYPE": 0, "CLASSIFICATION_TYPE": "U", "NORAD_CAT_ID": 41859, "ELEMENT_SET_NO": 999, "REV_AT_EPOCH": 5617, "BSTAR": 0, "MEAN_MOTION_DOT": 1.1e-07, "MEAN_MOTION_DDOT": 0}, "tle": {"line1": "1 41859U 16069A   25343.86554797  .00000011  00000+0  00000+0 0  9997", "line2": "2 41859  55.3802 106.3298 0002194 323.9491  36.0038  1.70474355 56173"}}, "geometry": {"type": "Point", "coordinates": [89.54722245577194, -22.63468459739904]}}, {"type": "Feature", "properties": {"norad_id": 41860, "name": "GSAT0212 (GALILEO 16)", "group": "gnss", "lat": 46.59571935184336, "lon": 153.1329817255229, "alt_km": 23211.078234589946, "timestamp": "2025-12-11T13:55:02.407535+00:00", "meta": {"OBJECT_NAME": "GSAT0212 (GALILEO 16)", "OBJECT_ID": "2016-069B", "EPOCH": "2025-12-09T03:10:58.927872", "MEAN_MOTION": 1.70474546, "ECCENTRICITY": 0.00021877, "INCLINATION": 55.3778, "RA_OF_ASC_NODE": 106.3455, "ARG_OF_PERICENTER": 30.0277, "MEAN_ANOMALY": 329.9496, "EPHEMERIS_TYPE": 0, "CLASSIFICATION_TYPE": "U", "NORAD_CAT_ID": 41860, "ELEMENT_SET_NO": 999, "REV_AT_EPOCH": 5641, "BSTAR": 0, "MEAN_MOTION_DOT": 1e-07, "MEAN_MOTION_DDOT": 0}, "tle": {"line1": "1 41860U 16069B   25343.13262648  .00000010  00000+0  00000+0 0  9999", "line2": "2 41860  55.3778 106.3455 0002187  30.0277 329.9496  1.70474546 56413"}}, "geometry": {"type": "Point", "coordinates": [153.1329817255229, 46.59571935184336]}}, {"type": "Feature", "properties": {"norad_id": 41861, "name": "GSAT0213 (GALILEO 17)", "group": "gnss", "lat": -13.39913047618266, "lon": -64.26265253319096, "alt_km": 23223.72904378878, "timestamp": "2025-12-11T13:55:02.407555+00:00", "meta": {"OBJECT_NAME": "GSAT0213 (GALILEO 17)", "OBJECT_ID": "2016-069C", "EPOCH": "2025-12-08T21:55:35.814144", "MEAN_MOTION": 1.70474823, "ECCENTRICITY": 0.00022753, "INCLINATION": 55.38, "RA_OF_ASC_NODE": 106.3592, "ARG_OF_PERICENTER": 283.5203, "MEAN_ANOMALY": 76.4183, "EPHEMERIS_TYPE": 0, "CLASSIFICATION_TYPE": "U", "NORAD_CAT_ID": 41861, "ELEMENT_SET_NO": 999, "REV_AT_EPOCH": 5627, "BSTAR": 0, "MEAN_MOTION_DOT": 1e-07, "MEAN_MOTION_DDOT": 0}, "tle": {"line1": "1 41861U 16069C   25342.91360896  .00000010  00000+0  00000+0 0  9999", "line2": "2 41861  55.3800 106.3592 0002275 283.5203  76.4183  1.70474823 56273"}}, "geometry": {"type": "Point", "coordinates": [-64.26265253319096, -13.39913047618266]}}, {"type": "Feature", "properties": {"norad_id": 41862, "name": "GSAT0214 (GALILEO 18)", "group": "gnss", "lat": 51.99910732017369, "lon": -135.78427142043685, "alt_km": 23219.940444009484, "timestamp": "2025-12-11T13:55:02.407574+00:00", "meta": {"OBJECT_NAME": "GSAT0214 (GALILEO 18)", "OBJECT_ID": "2016-069D", "EPOCH": "2025-12-10T19:39:52.929504", "MEAN_MOTION": 1.70474684, "ECCENTRICITY": 0.00013288, "INCLINATION": 55.3792, "RA_OF_ASC_NODE": 106.2992, "ARG_OF_PERICENTER": 290.9764, "MEAN_ANOMALY": 68.9794, "EPHEMERIS_TYPE": 0, "CLASSIFICATION_TYPE": "U", "NORAD_CAT_ID": 41862, "ELEMENT_SET_NO": 999, "REV_AT_EPOCH": 5643, "BSTAR": 0, "MEAN_MOTION_DOT": 1e-07, "MEAN_MOTION_DDOT": 0}, "tle": {"line1": "1 41862U 16069D   25344.81936261  .00000010  00000+0  00000+0 0  9996", "line2": "2 41862  55.3792 106.2992 0001328 290.9764  68.9794  1.70474684 56436"}}, "geometry": {"type": "Point", "coordinates": [-135.78427142043685, 51.99910732017369]}}, {"type": "Feature", "properties": {"norad_id": 42709, "name": "SES-15 (WAAS/PRN 133)", "group": "gnss", "lat": 0.0014906405842025105, "lon": 160.116860128957, "alt_km": 35784.14471151767, "timestamp": "2025-12-11T13:55:02.407587+00:00", "meta": {"OBJECT_NAME": "SES-15 (WAAS/PRN 133)", "OBJECT_ID": "2017-026A", "EPOCH": "2025-12-10T23:12:05.566176", "MEAN_MOTION": 1.00271075, "ECCENTRICITY": 7.736e-05, "INCLINATION": 0.0183, "RA_OF_ASC_NODE": 344.9808, "ARG_OF_PERICENTER": 225.0397, "MEAN_ANOMALY": 88.7675, "EPHEMERIS_TYPE": 0, "CLASSIFICATION_TYPE": "U", "NORAD_CAT_ID": 42709, "ELEMENT_SET_NO": 999, "REV_AT_EPOCH": 554, "BSTAR": 0, "MEAN_MOTION_DOT": 6.5e-07, "MEAN_MOTION_DDOT": 0}, "tle": {"line1": "1 42709U 17026A   25344.96673109  .00000065  00000+0  00000+0 0  9996", "line2": "2 42709   0.0183 344.9808 0000773 225.0397  88.7675  1.00271075  5545"}}, "geometry": {"type": "Point", "coordinates": [160.116860128957, 0.0014906405842025105]}}]}